{"fetched_at":"2026-07-10T18:08:15.903Z","source":"https://celestrak.org/NORAD/elements/gp.php?NAME=ICEYE&FORMAT=JSON","constellation":"iceye","records":[{"OBJECT_NAME":"ICEYE-X72","OBJECT_ID":"2026-067CS","EPOCH":"2026-07-09T16:00:01.999584","CLASSIFICATION_TYPE":"U","MEAN_MOTION":14.94885297,"ECCENTRICITY":0.00003754,"INCLINATION":97.7629,"RA_OF_ASC_NODE":148.6886,"ARG_OF_PERICENTER":251.4717,"MEAN_ANOMALY":20.8475,"EPHEMERIS_TYPE":0,"NORAD_CAT_ID":68504,"ELEMENT_SET_NO":999,"REV_AT_EPOCH":546,"BSTAR":0.0025152097,"MEAN_MOTION_DOT":0.00027457,"MEAN_MOTION_DDOT":0},{"OBJECT_NAME":"ICEYE-X78","OBJECT_ID":"2026-100R","EPOCH":"2026-07-08T16:10:09.743232","CLASSIFICATION_TYPE":"U","MEAN_MOTION":14.91805336,"ECCENTRICITY":0.00038193,"INCLINATION":97.7343,"RA_OF_ASC_NODE":86.7288,"ARG_OF_PERICENTER":67.9217,"MEAN_ANOMALY":292.2407,"EPHEMERIS_TYPE":0,"NORAD_CAT_ID":68995,"ELEMENT_SET_NO":999,"REV_AT_EPOCH":990,"BSTAR":0.000080871235,"MEAN_MOTION_DOT":0.0000076,"MEAN_MOTION_DDOT":0},{"OBJECT_NAME":"ICEYE-X82","OBJECT_ID":"2026-100S","EPOCH":"2026-07-10T04:04:46.399008","CLASSIFICATION_TYPE":"U","MEAN_MOTION":14.91410093,"ECCENTRICITY":0.00058051,"INCLINATION":97.7338,"RA_OF_ASC_NODE":88.145,"ARG_OF_PERICENTER":76.1501,"MEAN_ANOMALY":284.0363,"EPHEMERIS_TYPE":0,"NORAD_CAT_ID":68996,"ELEMENT_SET_NO":999,"REV_AT_EPOCH":1012,"BSTAR":0.00013645797,"MEAN_MOTION_DOT":0.00001308,"MEAN_MOTION_DDOT":0}]}
